ONEWEB-0678             
1 56714U 23068E   23266.54786097  .00006097  00000+0  13258-1 0  9998
2 56714  87.9484  97.7007 0002907 137.5339 222.6024 13.28826067 18802
ONEWEB-0679             
1 56715U 23068F   23266.54890238  .00002029  00000+0  27386-3 0  9992
2 56715  86.7172  88.7229 0016661 135.7832 224.4724 14.78514136 19467
ONEWEB-0680             
1 56716U 23068G   23266.58334491 -.01046471  00000+0 -18322+0 0  9999
2 56716  86.7787  88.7287 0015558 141.0905 195.2498 14.70834091  5655
ONEWEB-0681             
1 56717U 23068H   23266.58334491 -.01081585  00000+0 -20215+0 0  9999
2 56717  86.7897  88.7867 0013888 138.3800 346.6428 14.68097254  5710
ONEWEB-0682             
1 56718U 23068J   23266.58334491 -.00024723  00000+0 -54190-1 0  9991
2 56718  87.9493  97.1679 0003183 146.0146 354.0222 13.28703742  5498
ONEWEB-0683             
1 56719U 23068K   23266.58334491 -.00015396  00000+0 -33848-1 0  9995
2 56719  87.9521  97.1234 0002214 143.8365  73.5045 13.28456100  5253
ONEWEB-0684             
1 56720U 23068L   23266.45801172 -.00042058  00000+0 -92659-1 0  9998
2 56720  87.8530  98.1285 0003027  25.1189 335.0096 13.28478223 18065
ONEWEB-0686             
1 56721U 23068M   23266.57124375  .00003361  00000+0  45927-3 0  9995
2 56721  86.7154  88.6931 0015927 137.4784 222.7673 14.78225098 18775
